STARLINK-1717           
1 46673U 20073D   23258.57303058  .00010922  00000+0  75132-3 0  9993
2 46673  53.0561   4.4626 0001461  82.4356 277.6798 15.06383322160343
STARLINK-1718           
1 46674U 20073E   23258.55042082  .00009550  00000+0  65962-3 0  9994
2 46674  53.0562 349.4391 0001398 101.3302 258.7844 15.06374994160557
STARLINK-1720           
1 46675U 20073F   23258.48038199 -.00000413  00000+0 -88572-5 0  9996
2 46675  53.0558 349.7523 0001366  64.6840 295.4291 15.06380113161023
STARLINK-1766           
1 46677U 20073H   23258.60941163  .00006570  00000+0  45979-3 0  9996
2 46677  53.0569 349.1735 0001570  97.1582 262.9585 15.06381084161042
STARLINK-1773           
1 46679U 20073K   23258.48224799  .00003790  00000+0  27335-3 0  9990
2 46679  53.0558 329.7436 0001589  94.7401 265.3770 15.06381294161313
STARLINK-1774           
1 46680U 20073L   23258.55090065  .00008662  00000+0  60004-3 0  9990
2 46680  53.0545   4.4379 0001406  88.3655 271.7495 15.06379233160349
STARLINK-1775           
1 46681U 20073M   23258.52140849  .00005333  00000+0  37684-3 0  9994
2 46681  53.0577   4.5671 0001523  95.1783 264.9380 15.06378622160336
STARLINK-1776           
1 46682U 20073N   23258.61352347  .00031840  00000+0  21435-2 0  9991
2 46682  53.0564   4.1543 0001367  82.5099 277.6045 15.06457674160944
STARLINK-1780           
1 46684U 20073Q   23258.46935012  .00013880  00000+0  94924-3 0  9990
2 46684  53.0562 349.8024 0001453  89.0851 271.0304 15.06385254160547
STARLINK-1781           
1 46685U 20073R   23258.52413660  .00016294  00000+0  11108-2 0  9992
2 46685  53.0573   4.5415 0001390  73.8554 286.2588 15.06381184160337
STARLINK-1783           
1 46686U 20073S   23258.56838142  .00009458  00000+0  65334-3 0  9998
2 46686  53.0561   4.3096 0001563  77.5166 282.5997 15.06380106160347
STARLINK-1784           
1 46687U 20073T   23258.42695003  .00012850  00000+0  88010-3 0  9997
2 46687  53.0542 329.9944 0001394  94.4980 265.6168 15.06395525160814
STARLINK-1788           
1 46689U 20073V   23258.51772675  .00009714  00000+0  67049-3 0  9994
2 46689  53.0565   4.5852 0001465  81.8461 278.2694 15.06379385161583
STARLINK-1789           
1 46690U 20073W   23258.51818310  .00005134  00000+0  36341-3 0  9996
2 46690  53.0555 339.5858 0001384 108.3179 251.7960 15.06388319160681
STARLINK-1790           
1 46691U 20073X   23258.51726333  .00009916  00000+0  68382-3 0  9992
2 46691  53.0557 349.5855 0001511 101.1121 259.0038 15.06389321160548
STARLINK-1791           
1 46692U 20073Y   23258.56932765  .00014946  00000+0  10205-2 0  9995
2 46692  53.0555   4.3563 0001411  79.0655 281.0493 15.06386308160343
STARLINK-1792           
1 46693U 20073Z   23258.52091816  .00000406  00000+0  46184-4 0  9998
2 46693  53.0579 349.5695 0001521  97.1353 262.9809 15.06398793160540
