[{"OBJECT_NAME":"STARLINK-1717","OBJECT_ID":"2020-073D","EPOCH":"2023-09-15T13:45:09.842112","MEAN_MOTION":15.06383322,"ECCENTRICITY":0.0001461,"INCLINATION":53.0561,"RA_OF_ASC_NODE":4.4626,"ARG_OF_PERICENTER":82.4356,"MEAN_ANOMALY":277.6798,"EPHEMERIS_TYPE":0,"CLASSIFICATION_TYPE":"U","NORAD_CAT_ID":46673,"ELEMENT_SET_NO":999,"REV_AT_EPOCH":16034,"BSTAR":0.00075132,"MEAN_MOTION_DOT":0.00010922,"MEAN_MOTION_DDOT":0},{"OBJECT_NAME":"STARLINK-1718","OBJECT_ID":"2020-073E","EPOCH":"2023-09-15T13:12:36.358848","MEAN_MOTION":15.06374994,"ECCENTRICITY":0.0001398,"INCLINATION":53.0562,"RA_OF_ASC_NODE":349.4391,"ARG_OF_PERICENTER":101.3302,"MEAN_ANOMALY":258.7844,"EPHEMERIS_TYPE":0,"CLASSIFICATION_TYPE":"U","NORAD_CAT_ID":46674,"ELEMENT_SET_NO":999,"REV_AT_EPOCH":16055,"BSTAR":0.00065962,"MEAN_MOTION_DOT":9.55e-5,"MEAN_MOTION_DDOT":0},{"OBJECT_NAME":"STARLINK-1720","OBJECT_ID":"2020-073F","EPOCH":"2023-09-15T11:31:45.003936","MEAN_MOTION":15.06380113,"ECCENTRICITY":0.0001366,"INCLINATION":53.0558,"RA_OF_ASC_NODE":349.7523,"ARG_OF_PERICENTER":64.684,"MEAN_ANOMALY":295.4291,"EPHEMERIS_TYPE":0,"CLASSIFICATION_TYPE":"U","NORAD_CAT_ID":46675,"ELEMENT_SET_NO":999,"REV_AT_EPOCH":16102,"BSTAR":-8.8572e-6,"MEAN_MOTION_DOT":-4.13e-6,"MEAN_MOTION_DDOT":0},{"OBJECT_NAME":"STARLINK-1766","OBJECT_ID":"2020-073H","EPOCH":"2023-09-15T14:37:33.164832","MEAN_MOTION":15.06381084,"ECCENTRICITY":0.000157,"INCLINATION":53.0569,"RA_OF_ASC_NODE":349.1735,"ARG_OF_PERICENTER":97.1582,"MEAN_ANOMALY":262.9585,"EPHEMERIS_TYPE":0,"CLASSIFICATION_TYPE":"U","NORAD_CAT_ID":46677,"ELEMENT_SET_NO":999,"REV_AT_EPOCH":16104,"BSTAR":0.00045979,"MEAN_MOTION_DOT":6.57e-5,"MEAN_MOTION_DDOT":0},{"OBJECT_NAME":"STARLINK-1773","OBJECT_ID":"2020-073K","EPOCH":"2023-09-15T11:34:26.226336","MEAN_MOTION":15.06381294,"ECCENTRICITY":0.0001589,"INCLINATION":53.0558,"RA_OF_ASC_NODE":329.7436,"ARG_OF_PERICENTER":94.7401,"MEAN_ANOMALY":265.377,"EPHEMERIS_TYPE":0,"CLASSIFICATION_TYPE":"U","NORAD_CAT_ID":46679,"ELEMENT_SET_NO":999,"REV_AT_EPOCH":16131,"BSTAR":0.00027335,"MEAN_MOTION_DOT":3.79e-5,"MEAN_MOTION_DDOT":0},{"OBJECT_NAME":"STARLINK-1774","OBJECT_ID":"2020-073L","EPOCH":"2023-09-15T13:13:17.816160","MEAN_MOTION":15.06379233,"ECCENTRICITY":0.0001406,"INCLINATION":53.0545,"RA_OF_ASC_NODE":4.4379,"ARG_OF_PERICENTER":88.3655,"MEAN_ANOMALY":271.7495,"EPHEMERIS_TYPE":0,"CLASSIFICATION_TYPE":"U","NORAD_CAT_ID":46680,"ELEMENT_SET_NO":999,"REV_AT_EPOCH":16034,"BSTAR":0.00060004,"MEAN_MOTION_DOT":8.662e-5,"MEAN_MOTION_DDOT":0},{"OBJECT_NAME":"STARLINK-1775","OBJECT_ID":"2020-073M","EPOCH":"2023-09-15T12:30:49.693536","MEAN_MOTION":15.06378622,"ECCENTRICITY":0.0001523,"INCLINATION":53.0577,"RA_OF_ASC_NODE":4.5671,"ARG_OF_PERICENTER":95.1783,"MEAN_ANOMALY":264.938,"EPHEMERIS_TYPE":0,"CLASSIFICATION_TYPE":"U","NORAD_CAT_ID":46681,"ELEMENT_SET_NO":999,"REV_AT_EPOCH":16033,"BSTAR":0.00037684,"MEAN_MOTION_DOT":5.333e-5,"MEAN_MOTION_DDOT":0},{"OBJECT_NAME":"STARLINK-1776","OBJECT_ID":"2020-073N","EPOCH":"2023-09-15T14:43:28.427808","MEAN_MOTION":15.06457674,"ECCENTRICITY":0.0001367,"INCLINATION":53.0564,"RA_OF_ASC_NODE":4.1543,"ARG_OF_PERICENTER":82.5099,"MEAN_ANOMALY":277.6045,"EPHEMERIS_TYPE":0,"CLASSIFICATION_TYPE":"U","NORAD_CAT_ID":46682,"ELEMENT_SET_NO":999,"REV_AT_EPOCH":16094,"BSTAR":0.0021435,"MEAN_MOTION_DOT":0.0003184,"MEAN_MOTION_DDOT":0},{"OBJECT_NAME":"STARLINK-1780","OBJECT_ID":"2020-073Q","EPOCH":"2023-09-15T11:15:51.850368","MEAN_MOTION":15.06385254,"ECCENTRICITY":0.0001453,"INCLINATION":53.0562,"RA_OF_ASC_NODE":349.8024,"ARG_OF_PERICENTER":89.0851,"MEAN_ANOMALY":271.0304,"EPHEMERIS_TYPE":0,"CLASSIFICATION_TYPE":"U","NORAD_CAT_ID":46684,"ELEMENT_SET_NO":999,"REV_AT_EPOCH":16054,"BSTAR":0.00094924,"MEAN_MOTION_DOT":0.0001388,"MEAN_MOTION_DDOT":0},{"OBJECT_NAME":"STARLINK-1781","OBJECT_ID":"2020-073R","EPOCH":"2023-09-15T12:34:45.402240","MEAN_MOTION":15.06381184,"ECCENTRICITY":0.000139,"INCLINATION":53.0573,"RA_OF_ASC_NODE":4.5415,"ARG_OF_PERICENTER":73.8554,"MEAN_ANOMALY":286.2588,"EPHEMERIS_TYPE":0,"CLASSIFICATION_TYPE":"U","NORAD_CAT_ID":46685,"ELEMENT_SET_NO":999,"REV_AT_EPOCH":16033,"BSTAR":0.0011108,"MEAN_MOTION_DOT":0.00016294,"MEAN_MOTION_DDOT":0},{"OBJECT_NAME":"STARLINK-1783","OBJECT_ID":"2020-073S","EPOCH":"2023-09-15T13:38:28.154688","MEAN_MOTION":15.06380106,"ECCENTRICITY":0.0001563,"INCLINATION":53.0561,"RA_OF_ASC_NODE":4.3096,"ARG_OF_PERICENTER":77.5166,"MEAN_ANOMALY":282.5997,"EPHEMERIS_TYPE":0,"CLASSIFICATION_TYPE":"U","NORAD_CAT_ID":46686,"ELEMENT_SET_NO":999,"REV_AT_EPOCH":16034,"BSTAR":0.00065334,"MEAN_MOTION_DOT":9.458e-5,"MEAN_MOTION_DDOT":0},{"OBJECT_NAME":"STARLINK-1784","OBJECT_ID":"2020-073T","EPOCH":"2023-09-15T10:14:48.482592","MEAN_MOTION":15.06395525,"ECCENTRICITY":0.0001394,"INCLINATION":53.0542,"RA_OF_ASC_NODE":329.9944,"ARG_OF_PERICENTER":94.498,"MEAN_ANOMALY":265.6168,"EPHEMERIS_TYPE":0,"CLASSIFICATION_TYPE":"U","NORAD_CAT_ID":46687,"ELEMENT_SET_NO":999,"REV_AT_EPOCH":16081,"BSTAR":0.0008801,"MEAN_MOTION_DOT":0.0001285,"MEAN_MOTION_DDOT":0},{"OBJECT_NAME":"STARLINK-1788","OBJECT_ID":"2020-073V","EPOCH":"2023-09-15T12:25:31.591200","MEAN_MOTION":15.06379385,"ECCENTRICITY":0.0001465,"INCLINATION":53.0565,"RA_OF_ASC_NODE":4.5852,"ARG_OF_PERICENTER":81.8461,"MEAN_ANOMALY":278.2694,"EPHEMERIS_TYPE":0,"CLASSIFICATION_TYPE":"U","NORAD_CAT_ID":46689,"ELEMENT_SET_NO":999,"REV_AT_EPOCH":16158,"BSTAR":0.00067049,"MEAN_MOTION_DOT":9.714e-5,"MEAN_MOTION_DDOT":0},{"OBJECT_NAME":"STARLINK-1789","OBJECT_ID":"2020-073W","EPOCH":"2023-09-15T12:26:11.019840","MEAN_MOTION":15.06388319,"ECCENTRICITY":0.0001384,"INCLINATION":53.0555,"RA_OF_ASC_NODE":339.5858,"ARG_OF_PERICENTER":108.3179,"MEAN_ANOMALY":251.796,"EPHEMERIS_TYPE":0,"CLASSIFICATION_TYPE":"U","NORAD_CAT_ID":46690,"ELEMENT_SET_NO":999,"REV_AT_EPOCH":16068,"BSTAR":0.00036341,"MEAN_MOTION_DOT":5.134e-5,"MEAN_MOTION_DDOT":0},{"OBJECT_NAME":"STARLINK-1790","OBJECT_ID":"2020-073X","EPOCH":"2023-09-15T12:24:51.551712","MEAN_MOTION":15.06389321,"ECCENTRICITY":0.0001511,"INCLINATION":53.0557,"RA_OF_ASC_NODE":349.5855,"ARG_OF_PERICENTER":101.1121,"MEAN_ANOMALY":259.0038,"EPHEMERIS_TYPE":0,"CLASSIFICATION_TYPE":"U","NORAD_CAT_ID":46691,"ELEMENT_SET_NO":999,"REV_AT_EPOCH":16054,"BSTAR":0.00068382,"MEAN_MOTION_DOT":9.916e-5,"MEAN_MOTION_DDOT":0},{"OBJECT_NAME":"STARLINK-1791","OBJECT_ID":"2020-073Y","EPOCH":"2023-09-15T13:39:49.908960","MEAN_MOTION":15.06386308,"ECCENTRICITY":0.0001411,"INCLINATION":53.0555,"RA_OF_ASC_NODE":4.3563,"ARG_OF_PERICENTER":79.0655,"MEAN_ANOMALY":281.0493,"EPHEMERIS_TYPE":0,"CLASSIFICATION_TYPE":"U","NORAD_CAT_ID":46692,"ELEMENT_SET_NO":999,"REV_AT_EPOCH":16034,"BSTAR":0.0010205,"MEAN_MOTION_DOT":0.00014946,"MEAN_MOTION_DDOT":0},{"OBJECT_NAME":"STARLINK-1792","OBJECT_ID":"2020-073Z","EPOCH":"2023-09-15T12:30:07.329024","MEAN_MOTION":15.06398793,"ECCENTRICITY":0.0001521,"INCLINATION":53.0579,"RA_OF_ASC_NODE":349.5695,"ARG_OF_PERICENTER":97.1353,"MEAN_ANOMALY":262.9809,"EPHEMERIS_TYPE":0,"CLASSIFICATION_TYPE":"U","NORAD_CAT_ID":46693,"ELEMENT_SET_NO":999,"REV_AT_EPOCH":16054,"BSTAR":4.6184e-5,"MEAN_MOTION_DOT":4.06e-6,"MEAN_MOTION_DDOT":0}]
